<?xml version="1.0" encoding="utf-8"?>
<gpx xmlns="http://www.topografix.com/GPX/1/1"
xmlns:xsi="http://www.w3.org/2001/XMLSchema-instance"
xsi:schemaLocation="http://www.topografix.com/GPX/1/1 http://www.topografix.com/GPX/1/1/gpx.xsd"
version="1.1" creator="togpx">
  <metadata>
    <desc>licenses - "osm3s": { "timestamp_osm_base":
    "2026-08-01T12:58:51Z", "timestamp_areas_base":
    "2026-05-12T07:36:16Z", "copyright": "The data included in this
    document is from www.openstreetmap.org. The data is made
    available under ODbL." } // SRTM: { Elevation data missing in
    OSM was added by the NASA Shuttle Radar Topography Mission as
    public release version, if available there. } // { Check for
    latest version of this file on:
    https://github.com/GpxFeed/campgrounds }</desc>
    <author>
      <name>gpxfeed</name>
    </author>
  </metadata>
  <wpt lat="62.0176963" lon="-6.776615">
    <name>Effo gundadalur</name>
    <desc>amenity=fuel; brand=Effo; brand:wikidata=Q1296301;
    check_date=2025-09-02; compressed_air=yes;
    internet_access=wlan; internet_access:fee=no; name=Effo
    gundadalur; opening_hours=24/7; id=node/303599097</desc>
  </wpt>
  <wpt lat="62.1192131" lon="-6.9838697">
    <name>Effo Kollafjørður</name>
    <desc>addr:city=Kollafjørður; addr:housenumber=6;
    addr:postcode=410; addr:street=Frammi í Dal; amenity=fuel;
    brand=Effo; brand:wikidata=Q1296301; name=Effo Kollafjørður;
    phone=+298 343555; id=node/305430445</desc>
  </wpt>
  <wpt lat="61.4707396" lon="-6.8244156">
    <name>Magn Vágur</name>
    <desc>addr:city=Vágur; addr:country=FO; addr:housenumber=2;
    addr:postcode=900; addr:street=Líðarvegur; amenity=fuel;
    brand=Magn; brand:wikidata=Q140449576; check_date=2026-04-07;
    contact:facebook=https://www.facebook.com/people/Magn-V%C3%A1gur/61573238215362/;
    fuel:diesel=yes; fuel:octane_95=yes; name=Magn Vágur;
    phone=+298 373175; shop=yes; source=Umhvørvisstovan www.us.fo;
    us.fo:Adressutal=21537; id=node/444593705</desc>
  </wpt>
  <wpt lat="61.4731724" lon="-6.8184809">
    <name>Effo</name>
    <desc>addr:city=Vágur; addr:country=FO; addr:housenumber=85;
    addr:postcode=900; addr:street=Vágsvegur; amenity=fuel;
    brand=Effo; brand:wikidata=Q1296301; name=Effo; phone=+298
    343595; source=Umhvørvisstovan www.us.fo;
    us.fo:Adressutal=21807; id=node/444597567</desc>
  </wpt>
  <wpt lat="61.5620709" lon="-6.8421218">
    <name>Magn í Trongisvági</name>
    <desc>addr:city=Trongisvágur; addr:country=FO;
    addr:housenumber=26; addr:postcode=826; addr:street=Ósavegur;
    amenity=fuel; brand=Magn; brand:wikidata=Q140449576;
    check_date=2023-07-02;
    contact:facebook=https://www.facebook.com/Magntrongisvagi/;
    email=sh@biltek.fo; name=Magn í Trongisvági;
    opening_hours=Mo-Fr 08:00-23:00, Sa 09:00-23:00, Su
    13:00-23:00; phone=+298 280466; source=Umhvørvisstovan
    www.us.fo; us.fo:Adressutal=27704; id=node/444616883</desc>
  </wpt>
  <wpt lat="62.1254321" lon="-6.756254">
    <name>Effo</name>
    <desc>addr:city=Strendur; addr:country=FO; addr:housenumber=7;
    addr:postcode=490; addr:street=Á Byrgi; amenity=fuel;
    brand=Effo; brand:wikidata=Q1296301; name=Effo;
    source=Umhvørvisstovan www.us.fo; us.fo:Adressutal=17219;
    id=node/444639449</desc>
  </wpt>
  <wpt lat="62.1202577" lon="-6.7222762">
    <name>Effo</name>
    <desc>amenity=fuel; brand=Effo; brand:wikidata=Q1296301;
    check_date=2020-05-12; name=Effo; id=node/600235512</desc>
  </wpt>
  <wpt lat="62.2289089" lon="-6.5857649">
    <name>Klaksvik Effo</name>
    <desc>amenity=fuel; brand=Effo; brand:wikidata=Q1296301;
    check_date=2022-10-22; name=Klaksvik Effo; wheelchair=yes;
    id=node/678905723</desc>
  </wpt>
  <wpt lat="62.115129" lon="-6.7234101">
    <name>Magn Saltangará</name>
    <desc>addr:city=Saltangará; addr:housenumber=41;
    addr:postcode=600; addr:street=Heiðavegur; amenity=fuel;
    brand=Magn; brand:wikidata=Q140449576; fuel:biodiesel=no;
    fuel:biogas=no; fuel:diesel=yes; name=Magn Saltangará;
    phone=+298 347445; id=node/1502254350</desc>
  </wpt>
  <wpt lat="62.0481991" lon="-7.1928409">
    <name>Magn Støðin Miðvágur</name>
    <desc>addr:city=Miðvágur; addr:housenumber=21;
    addr:postcode=370; addr:street=Leitisvegur; amenity=fuel;
    brand=Magn; brand:wikidata=Q140449576; check_date=2023-07-02;
    name=Magn Støðin Miðvágur; opening_hours=Mo-Fr 07:00-23:00, Sa
    08:00-23:00, Su 09:00-23:00; phone=+298 347444;
    id=node/2284316572</desc>
  </wpt>
  <wpt lat="62.0701366" lon="-7.3257322">
    <name>Effo</name>
    <desc>amenity=fuel; brand=Effo; brand:wikidata=Q1296301;
    check_date=2016-08-28; name=Effo; name:en=Effo;
    id=node/4372035892</desc>
  </wpt>
  <wpt lat="62.2309559" lon="-6.5893208">
    <name>Magn Klaksvík</name>
    <desc>addr:city=Klaksvík; addr:housenumber=1;
    addr:postcode=700; addr:street=Stangavegur; amenity=fuel;
    brand=Magn; brand:wikidata=Q140449576;
    contact:facebook=https://www.facebook.com/people/Magn/100089997875451/;
    name=Magn Klaksvík; phone=+298 347449; wheelchair=yes;
    id=node/4881827799</desc>
  </wpt>
  <wpt lat="62.213165" lon="-6.7141718">
    <name>Effo</name>
    <desc>addr:city=Leirvík; addr:country=FO; addr:housenumber=5;
    addr:postcode=520; addr:street=Høvdavegur; amenity=fuel;
    brand=Effo; brand:wikidata=Q1296301; check_date=2017-11-26;
    contact:facebook=https://www.facebook.com/EffoLeirvik/;
    name=Effo; name:en=Effo; source=Umhvørvisstovan www.us.fo;
    us.fo:Adressutal=16911; id=node/5061001521</desc>
  </wpt>
  <wpt lat="61.5549675" lon="-6.8097583">
    <name>Effo</name>
    <desc>amenity=fuel; brand=Effo; brand:wikidata=Q1296301;
    check_date=2018-05-16; fuel:diesel=yes; name=Effo;
    id=node/5618530870</desc>
  </wpt>
  <wpt lat="61.6031099" lon="-6.9505115">
    <name>Effo</name>
    <desc>amenity=fuel; brand=Effo; brand:wikidata=Q1296301;
    check_date=2020-04-16; name=Effo; id=node/7403337998</desc>
  </wpt>
  <wpt lat="61.8416694" lon="-6.824111">
    <name>Effo</name>
    <desc>amenity=fuel; brand=Effo; brand:wikidata=Q1296301;
    check_date=2020-08-29; name=Effo; id=node/13979890551</desc>
  </wpt>
  <wpt lat="61.8408371" lon="-6.8091376">
    <name>Magn</name>
    <desc>amenity=fuel; brand=Magn; brand:wikidata=Q140449576;
    fuel:octane_95=yes; name=Magn; id=node/13999582714</desc>
  </wpt>
  <wpt lat="61.9965999" lon="-6.783147">
    <name>Effo</name>
    <desc>amenity=fuel; brand=Effo; brand:wikidata=Q1296301;
    compressed_air=yes; fuel:diesel=yes; fuel:octane_95=yes;
    name=Effo; id=node/13999592893</desc>
  </wpt>
  <wpt lat="62.20366575" lon="-6.757602948826278">
    <name>Magn Norðragøta</name>
    <desc>addr:city=Norðragøta; addr:housenumber=68;
    addr:postcode=512; addr:street=Við Ánna; amenity=fuel;
    brand=Magn; brand:wikidata=Q140449576; building=yes; name=Magn
    Norðragøta; phone=+298 347448; id=way/34242511</desc>
  </wpt>
  <wpt lat="62.2004548" lon="-6.853925401010176">
    <name>Effo</name>
    <desc>amenity=fuel; brand=Effo; brand:wikidata=Q1296301;
    building=yes; name=Effo; id=way/34242512</desc>
  </wpt>
  <wpt lat="62.209054949999995" lon="-6.999503583586716">
    <name>Magn v. Streymin</name>
    <desc>addr:city=Oyrarbakki; addr:housenumber=1;
    addr:postcode=400; addr:street=Oyrarbakkavegur; amenity=fuel;
    brand=Magn; brand:wikidata=Q140449576; building=yes;
    contact:facebook=https://www.facebook.com/MagnVidStreymin/;
    name=Magn v. Streymin; opening_hours=Mo-Fr 07:00-22:00, Sa
    08:00-22:00, Su 10:00-22:00; phone=+298 422255;
    id=way/36905327</desc>
  </wpt>
  <wpt lat="62.15331415" lon="-7.14640604607901">
    <name>Magn Vestmanna</name>
    <desc>addr:city=Vestmanna; addr:housenumber=81;
    addr:postcode=350; addr:street=Niðari Vegur; amenity=fuel;
    brand=Magn; brand:wikidata=Q140449576; building=yes;
    height=9.3; name=Magn Vestmanna; opening_hours=Mo-Sa
    07:00-23:00, Su 09:00-23:00; phone=+298 424453;
    roof:shape=gabled; id=way/40654143</desc>
  </wpt>
  <wpt lat="62.00502495" lon="-6.782876843666667">
    <name>Magn Frælsið</name>
    <desc>addr:city=Tórshavn; addr:housenumber=15;
    addr:postcode=100; addr:street=Á Frælsinum; amenity=fuel;
    brand=Magn; brand:wikidata=Q140449576; building=yes;
    check_date=2024-06-17; compressed_air=yes;
    contact:facebook=https://www.facebook.com/people/Magn/100089783618148/;
    layer=1; name=Magn Frælsið; opening_hours=Mo-Fr 07:00-23:00, Sa
    08:00-23:00, Su 09:00-23:00; phone=+298 347447;
    id=way/43249772</desc>
  </wpt>
  <wpt lat="62.02119515" lon="-6.778634556117813">
    <name>Magn Ringvegurin</name>
    <desc>addr:city=Tórshavn; addr:housenumber=6;
    addr:postcode=100; addr:street=Norðari Ringvegur; amenity=fuel;
    brand=Magn; brand:wikidata=Q140449576; building=yes;
    compressed_air=yes; fuel:diesel=yes; fuel:octane_95=yes;
    name=Magn Ringvegurin; phone=+298 347446; self_service=yes;
    id=way/44437081</desc>
  </wpt>
  <trk>
    <name>Magn Norðragøta</name>
    <trkseg>
      <trkpt lat="62.2036171" lon="-6.757841"></trkpt>
      <trkpt lat="62.2035446" lon="-6.7575922"></trkpt>
      <trkpt lat="62.2037041" lon="-6.7573787"></trkpt>
      <trkpt lat="62.2036274" lon="-6.7571152"></trkpt>
      <trkpt lat="62.2037088" lon="-6.7570063"></trkpt>
      <trkpt lat="62.2038579" lon="-6.7575186"></trkpt>
      <trkpt lat="62.2036171" lon="-6.757841"></trkpt>
    </trkseg>
  </trk>
  <trk>
    <name>Effo</name>
    <trkseg>
      <trkpt lat="62.2006194" lon="-6.8538915"></trkpt>
      <trkpt lat="62.2005779" lon="-6.8540539"></trkpt>
      <trkpt lat="62.2004924" lon="-6.8539535"></trkpt>
      <trkpt lat="62.2004206" lon="-6.8542347"></trkpt>
      <trkpt lat="62.2003097" lon="-6.8541044"></trkpt>
      <trkpt lat="62.200341" lon="-6.8539818"></trkpt>
      <trkpt lat="62.2003161" lon="-6.8539525"></trkpt>
      <trkpt lat="62.2002933" lon="-6.8539257"></trkpt>
      <trkpt lat="62.2003337" lon="-6.8537673"></trkpt>
      <trkpt lat="62.2003571" lon="-6.853795"></trkpt>
      <trkpt lat="62.2003842" lon="-6.8538265"></trkpt>
      <trkpt lat="62.2004155" lon="-6.8537039"></trkpt>
      <trkpt lat="62.200489" lon="-6.8537902"></trkpt>
      <trkpt lat="62.2004992" lon="-6.8537504"></trkpt>
      <trkpt lat="62.2006194" lon="-6.8538915"></trkpt>
    </trkseg>
  </trk>
  <trk>
    <name>Magn v. Streymin</name>
    <trkseg>
      <trkpt lat="62.2090578" lon="-6.9996779"></trkpt>
      <trkpt lat="62.2090134" lon="-6.999582"></trkpt>
      <trkpt lat="62.2089569" lon="-6.9994557"></trkpt>
      <trkpt lat="62.2089357" lon="-6.99941"></trkpt>
      <trkpt lat="62.208962" lon="-6.9993547"></trkpt>
      <trkpt lat="62.2088792" lon="-6.9991728"></trkpt>
      <trkpt lat="62.2089432" lon="-6.9990386"></trkpt>
      <trkpt lat="62.2089701" lon="-6.9990975"></trkpt>
      <trkpt lat="62.2089552" lon="-6.9991287"></trkpt>
      <trkpt lat="62.2090521" lon="-6.9993414"></trkpt>
      <trkpt lat="62.2090593" lon="-6.9993263"></trkpt>
      <trkpt lat="62.2090683" lon="-6.9993459"></trkpt>
      <trkpt lat="62.2091577" lon="-6.9991583"></trkpt>
      <trkpt lat="62.20923" lon="-6.9993168"></trkpt>
      <trkpt lat="62.2090963" lon="-6.9995972"></trkpt>
      <trkpt lat="62.2090578" lon="-6.9996779"></trkpt>
    </trkseg>
  </trk>
  <trk>
    <name>Magn Vestmanna</name>
    <trkseg>
      <trkpt lat="62.1534555" lon="-7.1463917"></trkpt>
      <trkpt lat="62.1534161" lon="-7.1464659"></trkpt>
      <trkpt lat="62.1534204" lon="-7.1464763"></trkpt>
      <trkpt lat="62.1534148" lon="-7.1464869"></trkpt>
      <trkpt lat="62.1533556" lon="-7.1465987"></trkpt>
      <trkpt lat="62.1533424" lon="-7.1465667"></trkpt>
      <trkpt lat="62.1533211" lon="-7.1466068"></trkpt>
      <trkpt lat="62.1533072" lon="-7.1466331"></trkpt>
      <trkpt lat="62.1532499" lon="-7.146494"></trkpt>
      <trkpt lat="62.1532647" lon="-7.146466"></trkpt>
      <trkpt lat="62.1532858" lon="-7.1464262"></trkpt>
      <trkpt lat="62.1531788" lon="-7.1461662"></trkpt>
      <trkpt lat="62.153249" lon="-7.1460338"></trkpt>
      <trkpt lat="62.1533338" lon="-7.1462399"></trkpt>
      <trkpt lat="62.1533491" lon="-7.1462111"></trkpt>
      <trkpt lat="62.1533584" lon="-7.1461935"></trkpt>
      <trkpt lat="62.1533958" lon="-7.1462845"></trkpt>
      <trkpt lat="62.1534046" lon="-7.146268"></trkpt>
      <trkpt lat="62.1534555" lon="-7.1463917"></trkpt>
    </trkseg>
  </trk>
  <trk>
    <name>Magn Frælsið</name>
    <trkseg>
      <trkpt lat="62.0051403" lon="-6.7830167"></trkpt>
      <trkpt lat="62.0050713" lon="-6.7831709"></trkpt>
      <trkpt lat="62.0050392" lon="-6.7831057"></trkpt>
      <trkpt lat="62.0050107" lon="-6.78317"></trkpt>
      <trkpt lat="62.0049253" lon="-6.7829855"></trkpt>
      <trkpt lat="62.0049507" lon="-6.7829309"></trkpt>
      <trkpt lat="62.0049062" lon="-6.7828372"></trkpt>
      <trkpt lat="62.0049778" lon="-6.7826832"></trkpt>
      <trkpt lat="62.0049859" lon="-6.7827017"></trkpt>
      <trkpt lat="62.0050684" lon="-6.7825203"></trkpt>
      <trkpt lat="62.0051352" lon="-6.782659"></trkpt>
      <trkpt lat="62.0050521" lon="-6.7828489"></trkpt>
      <trkpt lat="62.0051403" lon="-6.7830167"></trkpt>
    </trkseg>
  </trk>
  <trk>
    <name>Magn Ringvegurin</name>
    <trkseg>
      <trkpt lat="62.0211691" lon="-6.778882"></trkpt>
      <trkpt lat="62.0211307" lon="-6.7786261"></trkpt>
      <trkpt lat="62.0211036" lon="-6.7786446"></trkpt>
      <trkpt lat="62.0210794" lon="-6.7784837"></trkpt>
      <trkpt lat="62.0211074" lon="-6.7784646"></trkpt>
      <trkpt lat="62.0212584" lon="-6.7783618"></trkpt>
      <trkpt lat="62.0212842" lon="-6.7785337"></trkpt>
      <trkpt lat="62.0212212" lon="-6.7785766"></trkpt>
      <trkpt lat="62.0212579" lon="-6.7788215"></trkpt>
      <trkpt lat="62.0211691" lon="-6.778882"></trkpt>
    </trkseg>
  </trk>
</gpx>
